[{"OBJECT_ID":"1999-060A","OBJECT_NAME":"AMC-4 (GE-4)","NORAD_CAT_ID":"25954","OBJECT_TYPE":"PAYLOAD","PERIOD":"1436.198","INCLINATION":"0.0249","APOGEE":"35804.818","PERIGEE":"35772.349","ECCENTRICITY":"0.000385","MEAN_MOTION":"1.00264697","TLE_LINE1":"1 25954U 99060A   16238.44151374  .00000000  00000-0  10000-3 0  9992","TLE_LINE2":"2 25954   0.0249  26.0876 0003850  59.5157 340.4149  1.00264697 61455","LAUNCH_DATE":"1999-11-13","LAUNCH_SITE":"FRENCH GUIANA","OWNER":"SOCIÉTÉ EUROPÉENNE DES SATELLITES","ORBIT_TYPE":"Geosynchronous","OPERATIONAL_STATUS":"Operational","satInfo":{"lng":-84.99631831584564,"lat":0.481232738684289,"elevation":-8.102403045820395,"azimuth":39.99631831584565,"range":42593.845883295755,"height":35792.01227803132,"velocity":3.074850917018698},"x":-344.3317057374902,"y":-31.88602315069496,"dx":0.26818774536262885,"dy":-3.0631329542035943,"maxAlt":341.9537654682505,"minAlt":341.6419425075155},{"OBJECT_ID":"1999-071A","OBJECT_NAME":"GALAXY 11","NORAD_CAT_ID":"26038","OBJECT_TYPE":"PAYLOAD","PERIOD":"1436.089","INCLINATION":"0.0421","APOGEE":"35791.314","PERIGEE":"35781.574","ECCENTRICITY":"0.0001155","MEAN_MOTION":"1.00272328","TLE_LINE1":"1 26038U 99071A   16239.03591009  .00000020  00000-0  00000+0 0  9994","TLE_LINE2":"2 26038   0.0421 305.1640 0001155  67.5175  35.0333  1.00272328 61199","LAUNCH_DATE":"1999-12-22","LAUNCH_SITE":"FRENCH GUIANA","OWNER":"UNITED STATES OF AMERICA","ORBIT_TYPE":"Geosynchronous","OPERATIONAL_STATUS":"Operational","satInfo":{"lng":90.1478630788286,"lat":1.3375404474792,"elevation":-7.265653546018962,"azimuth":224.8521369211714,"range":42491.92423600793,"height":35784.071853372276,"velocity":3.074880142916639},"x":341.75338104102934,"y":-1.018552864124933,"dx":-0.007935326897559403,"dy":3.0748699035715443,"maxAlt":341.8240769265102,"minAlt":341.7305367608889},{"OBJECT_ID":"2000-007A","OBJECT_NAME":"HISPASAT 1C","NORAD_CAT_ID":"26071","OBJECT_TYPE":"PAYLOAD","PERIOD":"1436.099","INCLINATION":"0.0334","APOGEE":"35796.187","PERIGEE":"35777.103","ECCENTRICITY":"0.0002263","MEAN_MOTION":"1.00271611","TLE_LINE1":"1 26071U 00007A   16238.65024102 -.00000239  00000-0  00000+0 0  9997","TLE_LINE2":"2 26071   0.0334  21.8718 0002263 158.8085 303.8955  1.00271611 60719","LAUNCH_DATE":"2000-02-03","LAUNCH_SITE":"AIR FORCE EASTERN TEST RANGE","OWNER":"SPAIN","ORBIT_TYPE":"Geosynchronous","OPERATIONAL_STATUS":"Operational","satInfo":{"lng":-100.36307330058555,"lat":0.5193228703936429,"elevation":-8.065180523621326,"azimuth":55.363073300585526,"range":42589.5162333693,"height":35791.86115378799,"velocity":3.0746765145850206},"x":-340.03306459891576,"y":59.927363977447,"dx":-0.5530888101545346,"dy":-3.0245211914322123,"maxAlt":341.8708758204602,"minAlt":341.68759855960633},{"OBJECT_ID":"2000-011A","OBJECT_NAME":"GARUDA 1","NORAD_CAT_ID":"26089","OBJECT_TYPE":"PAYLOAD","PERIOD":"1441.429","INCLINATION":"1.2856","APOGEE":"35912.374","PERIGEE":"35869.437","ECCENTRICITY":"0.0005079","MEAN_MOTION":"0.99900847","TLE_LINE1":"1 26089U 00011A   16238.86923847 -.00000105 +00000-0 +00000-0 0  9991","TLE_LINE2":"2 26089 001.2856 134.4562 0005079 050.4465 185.1813 00.99900847005861","LAUNCH_DATE":"2000-02-12","LAUNCH_SITE":"TYURATAM MISSILE AND SPACE COMPLEX","OWNER":"INDONESIA","ORBIT_TYPE":"Geosynchronous","OPERATIONAL_STATUS":"Nonoperational","satInfo":{"lng":29.844057462407626,"lat":1.3286070828545649,"elevation":-7.255508653808913,"azimuth":285.15594253759235,"range":42585.76275067659,"height":35877.98231276586,"velocity":3.07170883602721},"x":169.5626964034164,"y":-300.7725416054133,"dx":2.664348178403092,"dy":1.5286085036947044,"maxAlt":342.9867024347358,"minAlt":342.5743478052406},{"OBJECT_ID":"2000-012A","OBJECT_NAME":"SUPERBIRD 4","NORAD_CAT_ID":"26095","OBJECT_TYPE":"PAYLOAD","PERIOD":"1436.128","INCLINATION":"0.0517","APOGEE":"35792.239","PERIGEE":"35782.195","ECCENTRICITY":"0.0001191","MEAN_MOTION":"1.00269571","TLE_LINE1":"1 26095U 00012A   16239.36228272 -.00000122  00000-0  00000+0 0  9993","TLE_LINE2":"2 26095   0.0517 267.5965 0001191 290.6437  69.1949  1.00269571 60511","LAUNCH_DATE":"2000-02-18","LAUNCH_SITE":"FRENCH GUIANA","OWNER":"JAPAN","ORBIT_TYPE":"Geosynchronous","OPERATIONAL_STATUS":"Operational","satInfo":{"lng":-56.32631776020109,"lat":-2.0529878770947922,"elevation":-10.569939837901348,"azimuth":11.32631776020104,"range":42886.06675246618,"height":35807.27754216979,"velocity":3.0740897334049233},"x":-288.0877753056507,"y":-192.57546849126751,"dx":1.704466636933419,"dy":-2.558284810689856,"maxAlt":341.83296036113035,"minAlt":341.73650066672576},{"OBJECT_ID":"2000-016A","OBJECT_NAME":"ASIASTAR","NORAD_CAT_ID":"26107","OBJECT_TYPE":"PAYLOAD","PERIOD":"1436.110","INCLINATION":"1.0635","APOGEE":"35804.454","PERIGEE":"35769.272","ECCENTRICITY":"0.0004172","MEAN_MOTION":"1.00270834","TLE_LINE1":"1 26107U 00016A   16238.86176439 -.00000360 +00000-0 +00000-0 0  9997","TLE_LINE2":"2 26107 001.0635 081.9467 0004172 079.6805 228.1817 01.00270834060007","LAUNCH_DATE":"2000-03-21","LAUNCH_SITE":"FRENCH GUIANA","OWNER":"UNITED STATES OF AMERICA","ORBIT_TYPE":"Geosynchronous","OPERATIONAL_STATUS":"Operational","satInfo":{"lng":48.54648286066498,"lat":-2.3953963310392714,"elevation":-10.903977210944474,"azimuth":266.453517139335,"range":42916.26409105379,"height":35800.11746835081,"velocity":3.074006287647525},"x":255.7808099964877,"y":-229.51454096610107,"dx":2.035029721250586,"dy":2.303946329696784,"maxAlt":341.950269716681,"minAlt":341.6123918822982},{"OBJECT_ID":"2000-028A","OBJECT_NAME":"EUTE 36A (EUTE W4)","NORAD_CAT_ID":"26369","OBJECT_TYPE":"PAYLOAD","PERIOD":"1436.086","INCLINATION":"0.4028","APOGEE":"35804.435","PERIGEE":"35768.351","ECCENTRICITY":"0.0004279","MEAN_MOTION":"1.00272511","TLE_LINE1":"1 26369U 00028A   16239.01477921 -.00000244  00000-0  00000+0 0  9998","TLE_LINE2":"2 26369   0.4028  81.3753 0004279  88.5176 258.6168  1.00272511 59566","LAUNCH_DATE":"2000-05-24","LAUNCH_SITE":"AIR FORCE EASTERN TEST RANGE","OWNER":"EUROPEAN TELECOMMUNICATIONS SATELLITE ORGANIZATION (EUTELSAT)","ORBIT_TYPE":"Geosynchronous","OPERATIONAL_STATUS":"Operational","satInfo":{"lng":61.977078497808726,"lat":-2.312151034608691,"elevation":-10.824643431846727,"azimuth":253.02292150219128,"range":42899.66943255115,"height":35792.49798408964,"velocity":3.0742254585760826},"x":301.5351660151794,"y":-163.4034093644046,"dx":1.4443472180033974,"dy":2.713802366423018,"maxAlt":341.9500872461321,"minAlt":341.60354686253055},{"OBJECT_ID":"2000-043B","OBJECT_NAME":"BLOCK DM-SL R/B","NORAD_CAT_ID":"26452","OBJECT_TYPE":"ROCKET BODY","PERIOD":"664.364","INCLINATION":"1.9735","APOGEE":"35779.183","PERIGEE":"1906.779","ECCENTRICITY":"0.6715088","MEAN_MOTION":"2.16748597","TLE_LINE1":"1 26452U 00043B   16238.85285457 -.00000098 +00000-0 +00000-0 0  9998","TLE_LINE2":"2 26452 001.9735 353.8141 6715088 103.4601 017.9886 02.16748597126974","LAUNCH_DATE":"2000-07-28","LAUNCH_SITE":"SEA LAUNCH","OWNER":"SEA LAUNCH DEMO","ORBIT_TYPE":"Highly Elliptical Orbit","OPERATIONAL_STATUS":"N/A, derelict rocket body","satInfo":{"lng":-42.976318925298536,"lat":0.43630676726935724,"elevation":-10.009652559311801,"azimuth":357.97631892529853,"range":35063.32511625303,"height":28152.471115817418,"velocity":2.6986332234753965},"x":-186.21439925742402,"y":-199.71645306523473,"dx":1.974415915657084,"dy":-1.8396475387544233,"maxAlt":341.70757428286004,"minAlt":16.4067241645772},{"OBJECT_ID":"2000-046A","OBJECT_NAME":"BRAZILSAT B4","NORAD_CAT_ID":"26469","OBJECT_TYPE":"PAYLOAD","PERIOD":"1436.079","INCLINATION":"1.0437","APOGEE":"35796.320","PERIGEE":"35776.174","ECCENTRICITY":"0.0002389","MEAN_MOTION":"1.00273033","TLE_LINE1":"1 26469U 00046A   16238.54788809 -.00000238  00000-0  00000+0 0  9999","TLE_LINE2":"2 26469   1.0437  86.8286 0002389  67.2583 293.4031  1.00273033 58717","LAUNCH_DATE":"2000-08-17","LAUNCH_SITE":"FRENCH GUIANA","OWNER":"BRAZIL","ORBIT_TYPE":"Geosynchronous","OPERATIONAL_STATUS":"Operational","satInfo":{"lng":-99.68869095011844,"lat":3.2039292484516837,"elevation":-5.431309036752502,"azimuth":54.68869095011841,"range":42290.01978717363,"height":35787.858792048835,"velocity":3.074967074524532},"x":-340.69952104514266,"y":55.936876727011445,"dx":-0.5175010241015225,"dy":-3.03110791616924,"maxAlt":341.8721531143029,"minAlt":341.67867671013374},{"OBJECT_ID":"2000-046B","OBJECT_NAME":"NILESAT 102","NORAD_CAT_ID":"26470","OBJECT_TYPE":"PAYLOAD","PERIOD":"1436.091","INCLINATION":"1.0652","APOGEE":"35810.118","PERIGEE":"35762.869","ECCENTRICITY":"0.0005603","MEAN_MOTION":"1.00272152","TLE_LINE1":"1 26470U 00046B   16239.13452203 -.00000086  00000-0  00000+0 0  9994","TLE_LINE2":"2 26470   1.0652  84.8581 0005603 104.8834 186.5051  1.00272152 58729","LAUNCH_DATE":"2000-08-17","LAUNCH_SITE":"FRENCH GUIANA","OWNER":"EGYPT","ORBIT_TYPE":"Geosynchronous","OPERATIONAL_STATUS":"Operational","satInfo":{"lng":64.39244957902268,"lat":-2.8755703160170993,"elevation":-11.365643191246145,"azimuth":250.60755042097728,"range":42990.12541055034,"height":35822.01464008523,"velocity":3.0733184466986545},"x":308.32732415091607,"y":-150.594337441392,"dx":1.3283023338934206,"dy":2.7714435200074927,"maxAlt":342.0046651476954,"minAlt":341.55089930730094}]